0 SOLRAD 7A
1 00730U 64001D   13281.13929297  .00000002  00000-0  40953-4 0  5643
2 00730 069.9052 144.6296 0015706 233.2032 256.2133 13.95403554414492
0 SOLRAD 7A
1 00730U 64001D   13282.85082811  .00000002  00000-0  41316-4 0  5650
2 00730 069.9050 140.9578 0015637 231.2936 213.7424 13.95403691414736
0 SOLRAD 7A
1 00730U 64001D   13284.07156007  .00000041  00000-0  69784-4 0  5668
2 00730 069.9049 138.3391 0015563 229.8904 225.8700 13.95403806414902
0 SOLRAD 7A
1 00730U 64001D   13285.15548700  .00000046  00000-0  73449-4 0  5672
2 00730 069.9047 136.0136 0015507 228.6547 270.7729 13.95403923415057
0 SOLRAD 7A
1 00730U 64001D   13286.79336079  .00000034  00000-0  64852-4 0  5683
2 00730 069.9046 132.4996 0015429 226.7542 218.3570 13.95404265415284
0 SOLRAD 7A
1 00730U 64001D   13287.79653390  .00000010  00000-0  46958-4 0  5694
2 00730 069.9045 130.3474 0015384 225.7073 217.5104 13.95404714415428
0 SOLRAD 7A
1 00730U 64001D   13289.09966779 -.00000016  00000-0  27704-4 0  5704
2 00730 069.9046 127.5517 0015314 224.2878 283.4919 13.95405150415606
0 SOLRAD 7A
1 00730U 64001D   13290.10133063 -.00000013  00000-0  29972-4 0  5717
2 00730 069.9047 125.4026 0015263 223.1513 275.1544 13.95405271415747
0 SOLRAD 7A
1 00730U 64001D   13291.10505650  .00000004  00000-0  42596-4 0  5720
2 00730 069.9047 123.2490 0015219 221.9133 277.2817 13.95405360415883
0 SOLRAD 7A
1 00730U 64001D   13292.51507056  .00000012  00000-0  48492-4 0  5739
2 00730 069.9049 120.2240 0015149 220.2726 160.2622 13.95405437416080
0 SOLRAD 7A
1 00730U 64001D   13293.81980231  .00000020  00000-0  54105-4 0  5741
2 00730 069.9050 117.4248 0015075 218.8414 234.2867 13.95405499416264
0 SOLRAD 7A
1 00730U 64001D   13294.82334552  .00000016  00000-0  51196-4 0  5755
2 00730 069.9051 115.2717 0015013 217.6926 235.4060 13.95405566416408
